#aV2007  9  5  0  0   .00000000      96 DD+AD WGS84 FIT  NGA
## 1443 259200.00000000   900.00000000 54348  .0000000000000
+   31     1  2  3  4  5  6  7  8  9 10 11 12 13 14 16 17 18
+         19 20 21 22 23 24 25 26 27 28 29 30 31 32  0  0  0
+          0  0  0  0  0  0  0  0  0  0  0  0  0  0  0  0  0
+          0  0  0  0  0  0  0  0  0  0  0  0  0  0  0  0  0
+          0  0  0  0  0  0  0  0  0  0  0  0  0  0  0  0  0
++         0  0  0  0  0  0  0  0  0  0  0  0  0  0  0  0  0
++         0  0  0  0  0  0  0  0  0  0  0  0  0  0  0  0  0
++         0  0  0  0  0  0  0  0  0  0  0  0  0  0  0  0  0
++         0  0  0  0  0  0  0  0  0  0  0  0  0  0  0  0  0
++         0  0  0  0  0  0  0  0  0  0  0  0  0  0  0  0  0
%c cc cc ccc ccc cccc cccc cccc cccc ccccc ccccc ccccc ccccc
%c cc cc ccc ccc cccc cccc cccc cccc ccccc ccccc ccccc ccccc
%f  0.0000000  0.000000000  0.00000000000  0.000000000000000
%f  0.0000000  0.000000000  0.00000000000  0.000000000000000
%i    0    0    0    0      0      0      0      0         0
%i    0    0    0    0      0      0      0      0         0
/*      NGA, ST. LOUIS,MO.                                  
/*   EPHEMERIS COMPUTED FROM  3 DAYS OF DATA                
/* CCCCCCCCCCCCCCCCCCCCCCCCCCCCCCCCCCCCCCCCCCCCCCCCCCCCCCCCC
/* CCCCCCCCCCCCCCCCCCCCCCCCCCCCCCCCCCCCCCCCCCCCCCCCCCCCCCCCC
*  2007  9  5 14 15   .00000000                                                 
P  1   1860.020628 -15035.696018  22013.913590    150.647571                    
V  1  26955.290074  -4807.335150  -5688.910334       .025071                    
P  2  10521.735607  21981.699644  10724.923338    134.280382                    
V  2 -11562.378154  -8054.822194  27054.453288       .027711                    
P  3  -8415.109966 -13948.077084 -21228.033414    111.490591                    
V  3  24931.497835  -9144.772621  -3570.139445       .053577                    
P  4  -1342.357708  18501.204422  18805.766067     -3.210768                    
V  4 -17836.281471 -16459.552794  15219.803357      -.027681                    
P  5  15739.385073   -151.651907  21128.083699    360.852668                    
V  5  -4859.582836  27085.847145   3917.156680       .351732                    
P  6  25682.468839  -6825.053244    662.269531    246.662952                    
V  6    400.530146   3673.144102  31107.314991      -.006696                    
P  7  25138.845416  -8555.391921   -876.629440   -127.007350                    
V  7   2526.459006   2976.486941  31127.367877       .282927                    
P  8  -9446.861320  11653.354666 -21996.914457   -121.602309                    
V  8 -18451.863107 -20591.704888  -3443.940498      -.014608                    
P  9  21287.412341  14399.671910   6476.134994     86.352500                    
V  9   4741.546027   8012.061759 -30334.347203       .016149                    
P 10   2882.374325  22381.447024 -13863.022140     44.717916                    
V 10  -7420.075199  16024.901039  24842.897196      -.526289                    
P 11 -23623.746109 -10044.817993   7278.750396     23.245952                    
V 11  -5011.047381  -9109.675145 -28073.734774       .004847                    
P 12  13576.608455   7416.946661  21690.451687    -55.108368                    
V 12  -7928.292843  26130.300435  -3925.359251      -.012933                    
P 13 -25923.273537   5699.101317   -613.480057    204.031449                    
V 13   -981.136948  -1576.507798  32500.502350       .029872                    
P 14  14986.668197 -14441.586775  16530.904076     39.619094                    
V 14  20598.715983  -3198.110797 -21674.491760       .022458                    
P 16   1267.356910 -24903.866444  -8833.665501    173.800163                    
V 16   5856.437824 -10086.689125  29190.442468       .022898                    
P 17 -16439.673058  14569.862939  14850.667703     55.564183                    
V 17 -18873.908497   2234.880174 -23248.700483      -.011256                    
P 18  16294.576968 -13539.240094 -15639.134563   -237.550310                    
V 18  -4179.709073  20023.947358 -21822.758587       .016735                    
P 19 -18562.192396  -8758.774322 -16835.685264     63.176555                    
V 19  20883.961338  -5486.554104 -19917.065232       .025376                    
P 20 -15046.801339  -3243.083453  21543.322154    -29.152350                    
V 20   7261.756570 -26660.903447   1084.609807      -.005663                    
P 21  17153.096235  -2943.023353 -20063.960721     78.426144                    
V 21  16515.380813  19755.781445  10555.235203      -.001723                    
P 22  11621.949147 -23342.375438  -4763.979093    196.762992                    
V 22    958.281326   6953.923460 -30749.235256       .009759                    
P 23 -24844.855899   -708.401798   9600.962255    198.164432                    
V 23  11377.731897  -4913.015421  28624.698879       .038677                    
P 24  20510.165911   8282.655293 -14288.915104     28.213317                    
V 24  10264.083645  15734.655232  23808.540911       .030021                    
P 25 -20123.026436  -1861.419052 -16793.928843    430.197713                    
V 25 -15427.444218 -15924.884849  19973.294038       .110402                    
P 26  15364.332134  10059.547839 -19844.120781     16.879787                    
V 26 -23385.573635   5246.981492 -15272.667325       .136242                    
P 27 -16093.112706   4107.653381 -20129.683065    133.195401                    
V 27 -19162.519873 -18997.798341  10882.320329       .023338                    
P 28 -12709.637633  21564.349083  -7997.029217     -6.342171                    
V 28    461.213221 -11101.117595 -29753.186343      -.006867                    
P 29  11014.918732  11587.237843 -21088.897453      5.477035                    
V 29 -26216.724401   6792.506861  -9490.782102       .002380                    
P 30  16212.174187  -7014.529738  19478.687814     44.759835                    
V 30  -4793.601191  25107.134911  12924.956503       .011986                    
P 31  -2221.997382 -19904.197765  17603.747332     10.544853                    
V 31  16435.157278  14696.835540  18974.592486      -.012925                    
P 32   4518.506030 -25375.319585   7156.000361     45.393510                    
V 32   4991.759836  -7104.835850 -30215.216032       .173059                    
EOF
